STARLINK-2404           
1 48093U 21027B   26068.45445489  .00003172  00000+0  11922-3 0  9991
2 48093  53.1593 156.0452 0001212 104.0491 256.0644 15.30185413272627
2025-313BC              
1 67298U 25313BC  26068.18968176  .00075331  00000+0  26410-2 0  9997
2 67298  97.3985 144.8110 0008478 328.9209  31.1528 15.29126358  7890
